IRIDIUM 126             
1 42809U 17039G   25336.26187894  .00000313  00000+0  10456-3 0  9992
2 42809  86.3968  75.9658 0001792  95.0073 265.1328 14.34216678441725
IRIDIUM 124             
1 42810U 17039H   25336.15284077  .00000462  00000+0  13136-3 0  9996
2 42810  86.4504  12.7343 0002148  99.7115 260.4329 14.43284458446699
IRIDIUM 128             
1 42811U 17039J   25336.11308682  .00000146  00000+0  44892-4 0  9995
2 42811  86.3957 107.5614 0002194 103.5876 256.5564 14.34218021441734
IRIDIUM 121             
1 42812U 17039K   25336.28091260  .00000024  00000+0  13985-5 0  9990
2 42812  86.3969  75.9841 0002141  97.0091 263.1349 14.34216877441604
IRIDIUM 133             
1 42955U 17061A   25335.86572378  .00000274  00000+0  90623-4 0  9990
2 42955  86.3959 107.7777 0002072  96.7651 263.3781 14.34219061426494
IRIDIUM 100             
1 42956U 17061B   25336.27798807  .00000410  00000+0  13931-3 0  9992
2 42956  86.3954 107.5285 0001825  94.0286 266.1119 14.34215297426552
IRIDIUM 122             
1 42957U 17061C   25335.89743678  .00000207  00000+0  66783-4 0  9994
2 42957  86.3958 107.6873 0001905  95.6681 264.4732 14.34217468426505
IRIDIUM 129             
1 42958U 17061D   25336.13211214  .00000327  00000+0  10965-3 0  9992
2 42958  86.3958 107.6541 0002005  82.9722 277.1701 14.34218011426552
